{"type": "FeatureCollection", "features": [ {"type": "Feature", "properties": {"norad_id": 64902, "name": "CO3D 2", "group": "resource", "lat": -19.319843146020244, "lon": -107.05581151008812, "alt_km": 510.9036122814996, "timestamp": "2025-12-25T11:37:44.079740+00:00", "meta": {"OBJECT_NAME": "CO3D 2", "OBJECT_ID": "2025-156D", "EPOCH": "2025-12-25T04:26:08.219904", "MEAN_MOTION": 15.20191518, "ECCENTRICITY": 8.18e-05, "INCLINATION": 97.4337, "RA_OF_ASC_NODE": 75.2724, "ARG_OF_PERICENTER": 59.5839, "MEAN_ANOMALY": 300.5477, "EPHEMERIS_TYPE": 0, "CLASSIFICATION_TYPE": "U", "NORAD_CAT_ID": 64902, "ELEMENT_SET_NO": 999, "REV_AT_EPOCH": 2309, "BSTAR": 0.00028713, "MEAN_MOTION_DOT": 6.151e-05, "MEAN_MOTION_DDOT": 0}, "tle": {"line1": "1 64902U 25156D   25359.18481736  .00006151  00000+0  28713-3 0  9998", "line2": "2 64902  97.4337  75.2724 0000818  59.5839 300.5477 15.20191518 23092"}}, "geometry": {"type": "Point", "coordinates": [-107.05581151008812, -19.319843146020244]}}, {"type": "Feature", "properties": {"norad_id": 64903, "name": "CO3D 1", "group": "resource", "lat": -18.4847628384071, "lon": -106.93411156785182, "alt_km": 510.78101476849224, "timestamp": "2025-12-25T11:37:44.079766+00:00", "meta": {"OBJECT_NAME": "CO3D 1", "OBJECT_ID": "2025-156E", "EPOCH": "2025-12-25T04:26:21.597216", "MEAN_MOTION": 15.20192774, "ECCENTRICITY": 8.82e-05, "INCLINATION": 97.434, "RA_OF_ASC_NODE": 75.2724, "ARG_OF_PERICENTER": 70.2005, "MEAN_ANOMALY": 289.9325, "EPHEMERIS_TYPE": 0, "CLASSIFICATION_TYPE": "U", "NORAD_CAT_ID": 64903, "ELEMENT_SET_NO": 999, "REV_AT_EPOCH": 2309, "BSTAR": 0.00010155, "MEAN_MOTION_DOT": 2.131e-05, "MEAN_MOTION_DDOT": 0}, "tle": {"line1": "1 64903U 25156E   25359.18497219  .00002131  00000+0  10155-3 0  9997", "line2": "2 64903  97.4340  75.2724 0000882  70.2005 289.9325 15.20192774 23090"}}, "geometry": {"type": "Point", "coordinates": [-106.93411156785182, -18.4847628384071]}}, {"type": "Feature", "properties": {"norad_id": 66514, "name": "SENTINEL-6B", "group": "resource", "lat": -2.257816077255451, "lon": -43.03233602285325, "alt_km": 1339.6362287767233, "timestamp": "2025-12-25T11:37:44.079779+00:00", "meta": {"OBJECT_NAME": "SENTINEL-6B", "OBJECT_ID": "2025-264A", "EPOCH": "2025-12-24T15:56:27.687840", "MEAN_MOTION": 12.80929573, "ECCENTRICITY": 0.00078982, "INCLINATION": 66.0398, "RA_OF_ASC_NODE": 137.6666, "ARG_OF_PERICENTER": 269.9778, "MEAN_ANOMALY": 90.0333, "EPHEMERIS_TYPE": 0, "CLASSIFICATION_TYPE": "U", "NORAD_CAT_ID": 66514, "ELEMENT_SET_NO": 999, "REV_AT_EPOCH": 481, "BSTAR": 6.3146286e-05, "MEAN_MOTION_DOT": -4.6e-07, "MEAN_MOTION_DDOT": 0}, "tle": {"line1": "1 66514U 25264A   25358.66420935 -.00000046  00000+0  63146-4 0  9993", "line2": "2 66514  66.0398 137.6666 0007898 269.9778  90.0333 12.80929573  4818"}}, "geometry": {"type": "Point", "coordinates": [-43.03233602285325, -2.257816077255451]}}]}